CCSDS_OMM_VERS = 2.0
CREATION_DATE  = 
ORIGINATOR     = 

OBJECT_NAME    = SL-14 R/B
OBJECT_ID      = 1986-046B
CENTER_NAME    = EARTH
REF_FRAME      = TEME
TIME_SYSTEM    = UTC
MEAN_ELEMENT_THEORY = SGP/SGP4

EPOCH          = 2025-12-14T20:52:53.246208
MEAN_MOTION    = 14.85486734
ECCENTRICITY   = .00239482
INCLINATION    = 82.4809
RA_OF_ASC_NODE = 160.3020
ARG_OF_PERICENTER = 145.4304
MEAN_ANOMALY   = 214.8476

EPHEMERIS_TYPE = 0
CLASSIFICATION_TYPE = U
NORAD_CAT_ID   = 16792
ELEMENT_SET_NO = 999
REV_AT_EPOCH   = 11381
BSTAR          = .64609295E-4
MEAN_MOTION_DOT = .585E-5
MEAN_MOTION_DDOT = 0

CCSDS_OMM_VERS = 2.0
CREATION_DATE  = 
ORIGINATOR     = 

OBJECT_NAME    = SL-14 R/B
OBJECT_ID      = 1986-055B
CENTER_NAME    = EARTH
REF_FRAME      = TEME
TIME_SYSTEM    = UTC
MEAN_ELEMENT_THEORY = SGP/SGP4

EPOCH          = 2025-12-14T20:36:34.473312
MEAN_MOTION    = 14.85532700
ECCENTRICITY   = .00175173
INCLINATION    = 82.5202
RA_OF_ASC_NODE = 206.3819
ARG_OF_PERICENTER = 251.7845
MEAN_ANOMALY   = 118.7697

EPHEMERIS_TYPE = 0
CLASSIFICATION_TYPE = U
NORAD_CAT_ID   = 16882
ELEMENT_SET_NO = 999
REV_AT_EPOCH   = 10677
BSTAR          = .53237437E-4
MEAN_MOTION_DOT = .485E-5
MEAN_MOTION_DDOT = 0

CCSDS_OMM_VERS = 2.0
CREATION_DATE  = 
ORIGINATOR     = 

OBJECT_NAME    = AJISAI (EGS)
OBJECT_ID      = 1986-061A
CENTER_NAME    = EARTH
REF_FRAME      = TEME
TIME_SYSTEM    = UTC
MEAN_ELEMENT_THEORY = SGP/SGP4

EPOCH          = 2025-12-14T23:33:33.741792
MEAN_MOTION    = 12.44514306
ECCENTRICITY   = .00113012
INCLINATION    = 50.0113
RA_OF_ASC_NODE = 353.8234
ARG_OF_PERICENTER = 71.5356
MEAN_ANOMALY   = 312.9824

EPHEMERIS_TYPE = 0
CLASSIFICATION_TYPE = U
NORAD_CAT_ID   = 16908
ELEMENT_SET_NO = 999
REV_AT_EPOCH   = 45745
BSTAR          = .66665437E-4
MEAN_MOTION_DOT = -.88E-6
MEAN_MOTION_DDOT = 0

CCSDS_OMM_VERS = 2.0
CREATION_DATE  = 
ORIGINATOR     = 

OBJECT_NAME    = COSMOS 1812
OBJECT_ID      = 1987-003A
CENTER_NAME    = EARTH
REF_FRAME      = TEME
TIME_SYSTEM    = UTC
MEAN_ELEMENT_THEORY = SGP/SGP4

EPOCH          = 2025-12-14T21:21:00.312480
MEAN_MOTION    = 15.75953603
ECCENTRICITY   = .00071283
INCLINATION    = 82.4863
RA_OF_ASC_NODE = 289.6881
ARG_OF_PERICENTER = 83.4901
MEAN_ANOMALY   = 276.7175

EPHEMERIS_TYPE = 0
CLASSIFICATION_TYPE = U
NORAD_CAT_ID   = 17295
ELEMENT_SET_NO = 999
REV_AT_EPOCH   = 13099
BSTAR          = .46528493E-3
MEAN_MOTION_DOT = .72467E-3
MEAN_MOTION_DDOT = 0

CCSDS_OMM_VERS = 2.0
CREATION_DATE  = 
ORIGINATOR     = 

OBJECT_NAME    = SL-14 R/B
OBJECT_ID      = 1987-024B
CENTER_NAME    = EARTH
REF_FRAME      = TEME
TIME_SYSTEM    = UTC
MEAN_ELEMENT_THEORY = SGP/SGP4

EPOCH          = 2025-12-14T22:25:16.383360
MEAN_MOTION    = 14.86025838
ECCENTRICITY   = .00182676
INCLINATION    = 82.5274
RA_OF_ASC_NODE = 172.3929
ARG_OF_PERICENTER = 176.8920
MEAN_ANOMALY   = 183.2413

EPHEMERIS_TYPE = 0
CLASSIFICATION_TYPE = U
NORAD_CAT_ID   = 17567
ELEMENT_SET_NO = 999
REV_AT_EPOCH   = 7554
BSTAR          = .62159921E-4
MEAN_MOTION_DOT = .569E-5
MEAN_MOTION_DDOT = 0

CCSDS_OMM_VERS = 2.0
CREATION_DATE  = 
ORIGINATOR     = 

OBJECT_NAME    = COSMOS 1833
OBJECT_ID      = 1987-027A
CENTER_NAME    = EARTH
REF_FRAME      = TEME
TIME_SYSTEM    = UTC
MEAN_ELEMENT_THEORY = SGP/SGP4

EPOCH          = 2025-12-14T20:11:47.095584
MEAN_MOTION    = 14.13022425
ECCENTRICITY   = .0022613
INCLINATION    = 70.9138
RA_OF_ASC_NODE = 144.3587
ARG_OF_PERICENTER = 328.7938
MEAN_ANOMALY   = 31.1839

EPHEMERIS_TYPE = 0
CLASSIFICATION_TYPE = U
NORAD_CAT_ID   = 17589
ELEMENT_SET_NO = 999
REV_AT_EPOCH   = 99832
BSTAR          = .12303923E-3
MEAN_MOTION_DOT = .182E-5
MEAN_MOTION_DDOT = 0

CCSDS_OMM_VERS = 2.0
CREATION_DATE  = 
ORIGINATOR     = 

OBJECT_NAME    = SL-16 R/B
OBJECT_ID      = 1987-027B
CENTER_NAME    = EARTH
REF_FRAME      = TEME
TIME_SYSTEM    = UTC
MEAN_ELEMENT_THEORY = SGP/SGP4

EPOCH          = 2025-12-14T16:59:53.396160
MEAN_MOTION    = 14.17152584
ECCENTRICITY   = .00073325
INCLINATION    = 71.0031
RA_OF_ASC_NODE = 95.5701
ARG_OF_PERICENTER = 257.2054
MEAN_ANOMALY   = 102.8250

EPHEMERIS_TYPE = 0
CLASSIFICATION_TYPE = U
NORAD_CAT_ID   = 17590
ELEMENT_SET_NO = 999
REV_AT_EPOCH   = 330
BSTAR          = .90272034E-4
MEAN_MOTION_DOT = .134E-5
MEAN_MOTION_DDOT = 0

CCSDS_OMM_VERS = 2.0
CREATION_DATE  = 
ORIGINATOR     = 

OBJECT_NAME    = SL-14 R/B
OBJECT_ID      = 1987-038B
CENTER_NAME    = EARTH
REF_FRAME      = TEME
TIME_SYSTEM    = UTC
MEAN_ELEMENT_THEORY = SGP/SGP4

EPOCH          = 2025-12-14T19:38:17.683872
MEAN_MOTION    = 14.85262952
ECCENTRICITY   = .00208929
INCLINATION    = 82.5015
RA_OF_ASC_NODE = 16.7431
ARG_OF_PERICENTER = 85.7560
MEAN_ANOMALY   = 274.6043

EPHEMERIS_TYPE = 0
CLASSIFICATION_TYPE = U
NORAD_CAT_ID   = 17912
ELEMENT_SET_NO = 999
REV_AT_EPOCH   = 6663
BSTAR          = .53268188E-4
MEAN_MOTION_DOT = .483E-5
MEAN_MOTION_DDOT = 0

CCSDS_OMM_VERS = 2.0
CREATION_DATE  = 
ORIGINATOR     = 

OBJECT_NAME    = COSMOS 1844
OBJECT_ID      = 1987-041A
CENTER_NAME    = EARTH
REF_FRAME      = TEME
TIME_SYSTEM    = UTC
MEAN_ELEMENT_THEORY = SGP/SGP4

EPOCH          = 2025-12-14T21:29:41.602560
MEAN_MOTION    = 14.14526136
ECCENTRICITY   = .00300245
INCLINATION    = 70.8969
RA_OF_ASC_NODE = 213.0246
ARG_OF_PERICENTER = 153.6735
MEAN_ANOMALY   = 206.5921

EPHEMERIS_TYPE = 0
CLASSIFICATION_TYPE = U
NORAD_CAT_ID   = 17973
ELEMENT_SET_NO = 999
REV_AT_EPOCH   = 99159
BSTAR          = .38104045E-4
MEAN_MOTION_DOT = .25E-6
MEAN_MOTION_DDOT = 0

CCSDS_OMM_VERS = 2.0
CREATION_DATE  = 
ORIGINATOR     = 

OBJECT_NAME    = SL-14 R/B
OBJECT_ID      = 1987-055B
CENTER_NAME    = EARTH
REF_FRAME      = TEME
TIME_SYSTEM    = UTC
MEAN_ELEMENT_THEORY = SGP/SGP4

EPOCH          = 2025-12-14T21:03:03.440160
MEAN_MOTION    = 14.85523359
ECCENTRICITY   = .00193033
INCLINATION    = 82.5000
RA_OF_ASC_NODE = 68.9742
ARG_OF_PERICENTER = 295.7926
MEAN_ANOMALY   = 64.1298

EPHEMERIS_TYPE = 0
CLASSIFICATION_TYPE = U
NORAD_CAT_ID   = 18153
ELEMENT_SET_NO = 999
REV_AT_EPOCH   = 5734
BSTAR          = .55844128E-4
MEAN_MOTION_DOT = .507E-5
MEAN_MOTION_DDOT = 0

CCSDS_OMM_VERS = 2.0
CREATION_DATE  = 
ORIGINATOR     = 

OBJECT_NAME    = COSMOS 1867
OBJECT_ID      = 1987-060A
CENTER_NAME    = EARTH
REF_FRAME      = TEME
TIME_SYSTEM    = UTC
MEAN_ELEMENT_THEORY = SGP/SGP4

EPOCH          = 2025-12-14T21:47:59.158176
MEAN_MOTION    = 14.31486393
ECCENTRICITY   = .00136272
INCLINATION    = 65.0088
RA_OF_ASC_NODE = 184.1298
ARG_OF_PERICENTER = 271.3375
MEAN_ANOMALY   = 88.6149

EPHEMERIS_TYPE = 0
CLASSIFICATION_TYPE = U
NORAD_CAT_ID   = 18187
ELEMENT_SET_NO = 999
REV_AT_EPOCH   = 780
BSTAR          = .3759737E-4
MEAN_MOTION_DOT = 0
MEAN_MOTION_DDOT = 0

CCSDS_OMM_VERS = 2.0
CREATION_DATE  = 
ORIGINATOR     = 

OBJECT_NAME    = SL-14 R/B
OBJECT_ID      = 1988-001B
CENTER_NAME    = EARTH
REF_FRAME      = TEME
TIME_SYSTEM    = UTC
MEAN_ELEMENT_THEORY = SGP/SGP4

EPOCH          = 2025-12-14T22:25:17.143680
MEAN_MOTION    = 14.85426166
ECCENTRICITY   = .00186802
INCLINATION    = 82.5133
RA_OF_ASC_NODE = 275.0832
ARG_OF_PERICENTER = 154.0485
MEAN_ANOMALY   = 206.1672

EPHEMERIS_TYPE = 0
CLASSIFICATION_TYPE = U
NORAD_CAT_ID   = 18749
ELEMENT_SET_NO = 999
REV_AT_EPOCH   = 2944
BSTAR          = .59010413E-4
MEAN_MOTION_DOT = .534E-5
MEAN_MOTION_DDOT = 0

