SL-14 R/B               
1 16792U 86046B   25348.87006072  .00000585  00000+0  64609-4 0  9997
2 16792  82.4809 160.3020 0023948 145.4304 214.8476 14.85486734113813
SL-14 R/B               
1 16882U 86055B   25348.85873233  .00000485  00000+0  53237-4 0  9990
2 16882  82.5202 206.3819 0017517 251.7845 118.7697 14.85532700106773
AJISAI (EGS)            
1 16908U 86061A   25348.98164053 -.00000088  00000+0  66665-4 0  9992
2 16908  50.0113 353.8234 0011301  71.5356 312.9824 12.44514306457451
COSMOS 1812             
1 17295U 87003A   25348.88958695  .00072467  00000+0  46528-3 0  9995
2 17295  82.4863 289.6881 0007128  83.4901 276.7175 15.75953603130993
SL-14 R/B               
1 17567U 87024B   25348.93421740  .00000569  00000+0  62160-4 0  9997
2 17567  82.5274 172.3929 0018267 176.8920 183.2413 14.86025838 75544
COSMOS 1833             
1 17589U 87027A   25348.84151731  .00000182  00000+0  12304-3 0  9999
2 17589  70.9138 144.3587 0022613 328.7938  31.1839 14.13022425998326
SL-16 R/B               
1 17590U 87027B   25348.70825690  .00000134  00000+0  90272-4 0  9996
2 17590  71.0031  95.5701 0007332 257.2054 102.8250 14.17152584  3305
SL-14 R/B               
1 17912U 87038B   25348.81826023  .00000483  00000+0  53268-4 0  9990
2 17912  82.5015  16.7431 0020892  85.7560 274.6043 14.85262952 66638
COSMOS 1844             
1 17973U 87041A   25348.89562040  .00000025  00000+0  38104-4 0  9999
2 17973  70.8969 213.0246 0030024 153.6735 206.5921 14.14526136991596
SL-14 R/B               
1 18153U 87055B   25348.87712315  .00000507  00000+0  55844-4 0  9990
2 18153  82.5000  68.9742 0019303 295.7926  64.1298 14.85523359 57341
COSMOS 1867             
1 18187U 87060A   25348.90832359  .00000000  00000+0  37597-4 0  9991
2 18187  65.0088 184.1298 0013627 271.3375  88.6149 14.31486393  7807
SL-14 R/B               
1 18749U 88001B   25348.93422620  .00000534  00000+0  59010-4 0  9996
2 18749  82.5133 275.0832 0018680 154.0485 206.1672 14.85426166 29446
